[{"OBJECT_NAME":"STARLINK-4514","OBJECT_ID":"2022-101AA","EPOCH":"2026-03-09T06:48:28.942848","MEAN_MOTION":15.08835407,"ECCENTRICITY":0.00014176,"INCLINATION":53.2183,"RA_OF_ASC_NODE":65.9443,"ARG_OF_PERICENTER":98.3097,"MEAN_ANOMALY":261.8056,"EPHEMERIS_TYPE":0,"CLASSIFICATION_TYPE":"U","NORAD_CAT_ID":53551,"ELEMENT_SET_NO":999,"REV_AT_EPOCH":19690,"BSTAR":-3.1370567e-5,"MEAN_MOTION_DOT":-7.87e-6,"MEAN_MOTION_DDOT":0},{"OBJECT_NAME":"NOAA 17 DEB","OBJECT_ID":"2002-032BW","EPOCH":"2026-03-08T22:40:23.580768","MEAN_MOTION":15.05196658,"ECCENTRICITY":0.00149213,"INCLINATION":98.7181,"RA_OF_ASC_NODE":121.0481,"ARG_OF_PERICENTER":217.4424,"MEAN_ANOMALY":142.5761,"EPHEMERIS_TYPE":0,"CLASSIFICATION_TYPE":"U","NORAD_CAT_ID":48737,"ELEMENT_SET_NO":999,"REV_AT_EPOCH":26108,"BSTAR":0.0055556624,"MEAN_MOTION_DOT":0.00080221,"MEAN_MOTION_DDOT":0}]
